OBJECT_NAME,OBJECT_ID,EPOCH,MEAN_MOTION,ECCENTRICITY,INCLINATION,RA_OF_ASC_NODE,ARG_OF_PERICENTER,MEAN_ANOMALY,EPHEMERIS_TYPE,CLASSIFICATION_TYPE,NORAD_CAT_ID,ELEMENT_SET_NO,REV_AT_EPOCH,BSTAR,MEAN_MOTION_DOT,MEAN_MOTION_DDOT
ONEWEB-0198,2021-031G,2026-07-19T17:29:45.625056,13.14502596,.0002517,87.8961,283.2264,97.6179,262.5237,0,U,48216,999,25276,-.58604E-3,-.204E-5,0
ONEWEB-0189,2021-031H,2026-07-19T17:47:49.977024,13.14503500,.0002342,87.8966,283.2128,98.5908,261.5487,0,U,48217,999,25250,.11803E-3,.57E-6,0
ONEWEB-0196,2021-031J,2026-07-19T17:15:51.565248,13.14502420,.0002192,87.8965,283.2253,97.5285,262.6094,0,U,48218,999,25250,-.6388E-3,-.224E-5,0
ONEWEB-0183,2021-031K,2026-07-19T18:28:56.004096,13.14502477,.0001904,87.8964,283.2128,94.0186,266.1162,0,U,48219,999,25260,.31832E-3,.131E-5,0
ONEWEB-0185,2021-031L,2026-07-19T17:16:58.360224,13.14501681,.0002101,87.8968,283.2184,87.1871,272.9500,0,U,48220,999,25252,-.68876E-3,-.243E-5,0
ONEWEB-0187,2021-031M,2026-07-19T18:37:51.513024,13.14502760,.0002161,87.8967,283.2208,94.9793,265.1583,0,U,48221,999,25254,.11294E-4,.17E-6,0
ONEWEB-0192,2021-031N,2026-07-19T17:54:40.731264,13.14503539,.000213,87.8961,283.2169,99.8620,260.2750,0,U,48222,999,25245,.40861E-3,.164E-5,0
ONEWEB-0219,2021-031P,2026-07-19T17:24:58.008096,13.14503662,.00022,87.8972,283.2148,93.4257,266.7124,0,U,48223,999,25265,-.60596E-3,-.212E-5,0
ONEWEB-0202,2021-031Q,2026-07-19T18:47:12.459840,13.14502443,.0002682,87.8969,283.2152,104.1264,256.0164,0,U,48224,999,25264,-.33866E-3,-.113E-5,0
ONEWEB-0204,2021-031R,2026-07-19T17:46:40.615968,13.14503055,.0001705,87.8966,283.2180,90.2251,269.9074,0,U,48225,999,25253,.24217E-3,.103E-5,0
ONEWEB-0205,2021-031S,2026-07-19T17:11:17.127744,13.14502843,.0002273,87.8971,283.2179,93.7329,266.4061,0,U,48226,999,25254,-.49079E-3,-.169E-5,0
ONEWEB-0206,2021-031T,2026-07-19T18:22:04.790208,13.14501875,.0001917,87.8970,283.2086,102.6208,257.5137,0,U,48227,999,25250,.34288E-3,.14E-5,0
ONEWEB-0182,2021-031U,2026-07-19T18:15:12.445344,13.14504144,.0001857,87.8965,283.2160,94.5649,265.5693,0,U,48228,999,25271,.50091E-3,.199E-5,0
ONEWEB-0186,2021-031V,2026-07-19T18:31:12.578304,13.14502749,.0002082,87.8976,283.2075,96.4925,263.6442,0,U,48229,999,25266,.28888E-3,.12E-5,0
ONEWEB-0181,2021-031W,2026-07-19T17:59:13.756128,13.14502043,.000222,87.8955,283.2356,97.2357,262.9025,0,U,48230,999,25251,.33643E-3,.138E-5,0
ONEWEB-0188,2021-031X,2026-07-19T18:54:02.560032,13.14502239,.0002059,87.8956,283.2274,97.5331,262.6032,0,U,48231,999,25242,-.40906E-3,-.139E-5,0
ONEWEB-0220,2021-031Y,2026-07-19T18:01:34.892256,13.14494015,.0002149,87.8970,283.2126,91.8047,268.3329,0,U,48232,999,25268,.43727E-3,.175E-5,0
ONEWEB-0165,2021-031Z,2026-07-19T18:42:37.630944,13.14503371,.0002447,87.8966,283.2176,99.3771,260.7635,0,U,48233,999,25264,-.14366E-3,-.4E-6,0
ONEWEB-0199,2021-031AA,2026-07-19T18:19:48.171936,13.14501765,.000189,87.8975,283.2082,103.1302,257.0038,0,U,48234,999,25254,.47273E-3,.188E-5,0
ONEWEB-0203,2021-031AB,2026-07-19T18:06:06.037920,13.14501609,.00021,87.8970,283.2133,104.0991,256.0372,0,U,48235,999,25255,.44127E-3,.176E-5,0
ONEWEB-0197,2021-031AC,2026-07-19T17:29:20.925024,13.14502868,.000193,87.8963,283.2017,92.1576,267.9774,0,U,48236,999,25246,-.40502E-3,-.137E-5,0
ONEWEB-0194,2021-031AD,2026-07-19T16:59:51.142848,13.14503914,.0001935,87.8965,283.2289,104.7610,255.3734,0,U,48237,999,25263,-.15491E-3,-.45E-6,0
ONEWEB-0193,2021-031AE,2026-07-19T17:22:42.493152,13.14502582,.0001894,87.8965,283.2167,110.6228,249.5105,0,U,48238,999,25258,-.54891E-3,-.191E-5,0
ONEWEB-0191,2021-031AF,2026-07-19T17:38:39.171840,13.14506936,.0001916,87.8973,283.2151,95.3689,264.7660,0,U,48239,999,25244,-.13672E-3,-.38E-6,0
ONEWEB-0195,2021-031AG,2026-07-19T18:55:12.993312,13.14489264,.0002785,87.8957,283.2062,94.7755,265.3692,0,U,48240,999,25243,.43764E-2,.1635E-4,0
ONEWEB-0201,2021-031AH,2026-07-19T18:38:15.190080,13.14502763,.0001974,87.8965,283.2210,90.1621,269.9735,0,U,48241,999,25266,.69287E-5,.15E-6,0
ONEWEB-0207,2021-031AJ,2026-07-19T18:09:30.468960,13.14500978,.000196,87.8969,283.2119,91.4654,268.6700,0,U,48242,999,25257,.66758E-3,.26E-5,0
ONEWEB-0208,2021-031AK,2026-07-19T17:43:15.350304,13.14508759,.0002514,87.8946,283.2206,95.6456,264.4960,0,U,48243,999,25258,-.33703E-2,-.1237E-4,0
ONEWEB-0200,2021-031AL,2026-07-19T18:40:21.266688,13.14501878,.0002117,87.8979,283.2020,96.6389,263.4981,0,U,48244,999,25251,.1108E-4,.17E-6,0
ONEWEB-0217,2021-031AM,2026-07-19T17:13:34.057056,13.14502937,.0002436,87.8976,283.2182,100.0477,260.0928,0,U,48245,999,25245,-.72374E-3,-.256E-5,0
