ONEWEB-0198             
1 48216U 21031G   26200.72900029 -.00000204  00000+0 -58604-3 0  9990
2 48216  87.8961 283.2264 0002517  97.6179 262.5237 13.14502596252768
ONEWEB-0189             
1 48217U 21031H   26200.74155066  .00000057  00000+0  11803-3 0  9990
2 48217  87.8966 283.2128 0002342  98.5908 261.5487 13.14503500252503
ONEWEB-0196             
1 48218U 21031J   26200.71934682 -.00000224  00000+0 -63880-3 0  9997
2 48218  87.8965 283.2253 0002192  97.5285 262.6094 13.14502420252508
ONEWEB-0183             
1 48219U 21031K   26200.77009264  .00000131  00000+0  31832-3 0  9990
2 48219  87.8964 283.2128 0001904  94.0186 266.1162 13.14502477252609
ONEWEB-0185             
1 48220U 21031L   26200.72011991 -.00000243  00000+0 -68876-3 0  9991
2 48220  87.8968 283.2184 0002101  87.1871 272.9500 13.14501681252529
ONEWEB-0187             
1 48221U 21031M   26200.77629066  .00000017  00000+0  11294-4 0  9995
2 48221  87.8967 283.2208 0002161  94.9793 265.1583 13.14502760252547
ONEWEB-0192             
1 48222U 21031N   26200.74630476  .00000164  00000+0  40861-3 0  9994
2 48222  87.8961 283.2169 0002130  99.8620 260.2750 13.14503539252454
ONEWEB-0219             
1 48223U 21031P   26200.72567139 -.00000212  00000+0 -60596-3 0  9991
2 48223  87.8972 283.2148 0002200  93.4257 266.7124 13.14503662252653
ONEWEB-0202             
1 48224U 21031Q   26200.78278310 -.00000113  00000+0 -33866-3 0  9998
2 48224  87.8969 283.2152 0002682 104.1264 256.0164 13.14502443252648
ONEWEB-0204             
1 48225U 21031R   26200.74074787  .00000103  00000+0  24217-3 0  9994
2 48225  87.8966 283.2180 0001705  90.2251 269.9074 13.14503055252534
ONEWEB-0205             
1 48226U 21031S   26200.71617046 -.00000169  00000+0 -49079-3 0  9990
2 48226  87.8971 283.2179 0002273  93.7329 266.4061 13.14502843252547
ONEWEB-0206             
1 48227U 21031T   26200.76533322  .00000140  00000+0  34288-3 0  9993
2 48227  87.8970 283.2086 0001917 102.6208 257.5137 13.14501875252509
ONEWEB-0182             
1 48228U 21031U   26200.76056071  .00000199  00000+0  50091-3 0  9999
2 48228  87.8965 283.2160 0001857  94.5649 265.5693 13.14504144252719
ONEWEB-0186             
1 48229U 21031V   26200.77167336  .00000120  00000+0  28888-3 0  9991
2 48229  87.8976 283.2075 0002082  96.4925 263.6442 13.14502749252660
ONEWEB-0181             
1 48230U 21031W   26200.74946477  .00000138  00000+0  33643-3 0  9995
2 48230  87.8955 283.2356 0002220  97.2357 262.9025 13.14502043252513
ONEWEB-0188             
1 48231U 21031X   26200.78752963 -.00000139  00000+0 -40906-3 0  9998
2 48231  87.8956 283.2274 0002059  97.5331 262.6032 13.14502239252421
ONEWEB-0220             
1 48232U 21031Y   26200.75109829  .00000175  00000+0  43727-3 0  9995
2 48232  87.8970 283.2126 0002149  91.8047 268.3329 13.14494015252687
ONEWEB-0165             
1 48233U 21031Z   26200.77960221 -.00000040  00000+0 -14366-3 0  9999
2 48233  87.8966 283.2176 0002447  99.3771 260.7635 13.14503371252644
ONEWEB-0199             
1 48234U 21031AA  26200.76375199  .00000188  00000+0  47273-3 0  9997
2 48234  87.8975 283.2082 0001890 103.1302 257.0038 13.14501765252546
ONEWEB-0203             
1 48235U 21031AB  26200.75423655  .00000176  00000+0  44127-3 0  9990
2 48235  87.8970 283.2133 0002100 104.0991 256.0372 13.14501609252556
ONEWEB-0197             
1 48236U 21031AC  26200.72871441 -.00000137  00000+0 -40502-3 0  9990
2 48236  87.8963 283.2017 0001930  92.1576 267.9774 13.14502868252461
ONEWEB-0194             
1 48237U 21031AD  26200.70823082 -.00000045  00000+0 -15491-3 0  9994
2 48237  87.8965 283.2289 0001935 104.7610 255.3734 13.14503914252638
ONEWEB-0193             
1 48238U 21031AE  26200.72410293 -.00000191  00000+0 -54891-3 0  9992
2 48238  87.8965 283.2167 0001894 110.6228 249.5105 13.14502582252580
ONEWEB-0191             
1 48239U 21031AF  26200.73517560 -.00000038  00000+0 -13672-3 0  9991
2 48239  87.8973 283.2151 0001916  95.3689 264.7660 13.14506936252445
ONEWEB-0195             
1 48240U 21031AG  26200.78834483  .00001635  00000+0  43764-2 0  9990
2 48240  87.8957 283.2062 0002785  94.7755 265.3692 13.14489264252437
ONEWEB-0201             
1 48241U 21031AH  26200.77656470  .00000015  00000+0  69287-5 0  9990
2 48241  87.8965 283.2210 0001974  90.1621 269.9735 13.14502763252666
ONEWEB-0207             
1 48242U 21031AJ  26200.75660265  .00000260  00000+0  66758-3 0  9996
2 48242  87.8969 283.2119 0001960  91.4654 268.6700 13.14500978252578
ONEWEB-0208             
1 48243U 21031AK  26200.73837211 -.00001237  00000+0 -33703-2 0  9992
2 48243  87.8946 283.2206 0002514  95.6456 264.4960 13.14508759252581
ONEWEB-0200             
1 48244U 21031AL  26200.77802392  .00000017  00000+0  11080-4 0  9998
2 48244  87.8979 283.2020 0002117  96.6389 263.4981 13.14501878252517
ONEWEB-0217             
1 48245U 21031AM  26200.71775529 -.00000256  00000+0 -72374-3 0  9993
2 48245  87.8976 283.2182 0002436 100.0477 260.0928 13.14502937252450
